[{"OBJECT_NAME":"FENGYUN 1C DEB","OBJECT_ID":"1999-025BSU","EPOCH":"2026-04-02T06:06:47.057184","MEAN_MOTION":14.07493929,"ECCENTRICITY":0.00458567,"INCLINATION":98.817,"RA_OF_ASC_NODE":82.4734,"ARG_OF_PERICENTER":250.7297,"MEAN_ANOMALY":125.1437,"EPHEMERIS_TYPE":0,"CLASSIFICATION_TYPE":"U","NORAD_CAT_ID":31388,"ELEMENT_SET_NO":999,"REV_AT_EPOCH":97996,"BSTAR":0.00026594989,"MEAN_MOTION_DOT":4.09e-6,"MEAN_MOTION_DDOT":0},{"OBJECT_NAME":"FENGYUN 1C DEB","OBJECT_ID":"1999-025BSV","EPOCH":"2026-04-02T10:43:05.253312","MEAN_MOTION":14.66965896,"ECCENTRICITY":0.00281217,"INCLINATION":99.0442,"RA_OF_ASC_NODE":273.5783,"ARG_OF_PERICENTER":205.0339,"MEAN_ANOMALY":183.9486,"EPHEMERIS_TYPE":0,"CLASSIFICATION_TYPE":"U","NORAD_CAT_ID":31389,"ELEMENT_SET_NO":999,"REV_AT_EPOCH":98117,"BSTAR":0.0070331846,"MEAN_MOTION_DOT":0.00039781,"MEAN_MOTION_DDOT":0},{"OBJECT_NAME":"FENGYUN 1C DEB","OBJECT_ID":"1999-025BSW","EPOCH":"2026-04-01T17:18:02.196864","MEAN_MOTION":14.45516534,"ECCENTRICITY":0.01087271,"INCLINATION":98.8477,"RA_OF_ASC_NODE":262.809,"ARG_OF_PERICENTER":317.901,"MEAN_ANOMALY":57.6753,"EPHEMERIS_TYPE":0,"CLASSIFICATION_TYPE":"U","NORAD_CAT_ID":31410,"ELEMENT_SET_NO":999,"REV_AT_EPOCH":99340,"BSTAR":0.00056628929,"MEAN_MOTION_DOT":2.095e-5,"MEAN_MOTION_DDOT":0},{"OBJECT_NAME":"FENGYUN 1C DEB","OBJECT_ID":"1999-025BSX","EPOCH":"2026-04-01T02:57:07.869600","MEAN_MOTION":14.28234274,"ECCENTRICITY":0.0099877,"INCLINATION":98.6504,"RA_OF_ASC_NODE":156.5302,"ARG_OF_PERICENTER":295.1092,"MEAN_ANOMALY":94.3938,"EPHEMERIS_TYPE":0,"CLASSIFICATION_TYPE":"U","NORAD_CAT_ID":31411,"ELEMENT_SET_NO":999,"REV_AT_EPOCH":96041,"BSTAR":0.00038364257,"MEAN_MOTION_DOT":9.63e-6,"MEAN_MOTION_DDOT":0},{"OBJECT_NAME":"FENGYUN 1C DEB","OBJECT_ID":"1999-025BSY","EPOCH":"2026-04-04T18:43:20.789472","MEAN_MOTION":14.10565607,"ECCENTRICITY":0.00837187,"INCLINATION":98.5567,"RA_OF_ASC_NODE":38.1709,"ARG_OF_PERICENTER":12.9366,"MEAN_ANOMALY":347.3927,"EPHEMERIS_TYPE":0,"CLASSIFICATION_TYPE":"U","NORAD_CAT_ID":31412,"ELEMENT_SET_NO":999,"REV_AT_EPOCH":62585,"BSTAR":0.0023805802,"MEAN_MOTION_DOT":4.345e-5,"MEAN_MOTION_DDOT":0},{"OBJECT_NAME":"FENGYUN 1C DEB","OBJECT_ID":"1999-025BTB","EPOCH":"2026-03-31T15:24:38.195136","MEAN_MOTION":14.31481329,"ECCENTRICITY":0.00630344,"INCLINATION":99.6526,"RA_OF_ASC_NODE":59.5684,"ARG_OF_PERICENTER":124.0937,"MEAN_ANOMALY":236.6246,"EPHEMERIS_TYPE":0,"CLASSIFICATION_TYPE":"U","NORAD_CAT_ID":31415,"ELEMENT_SET_NO":999,"REV_AT_EPOCH":64388,"BSTAR":0.0014875743,"MEAN_MOTION_DOT":3.988e-5,"MEAN_MOTION_DDOT":0},{"OBJECT_NAME":"FENGYUN 1C DEB","OBJECT_ID":"1999-025BTC","EPOCH":"2026-04-04T21:37:25.466880","MEAN_MOTION":14.40917898,"ECCENTRICITY":0.01318947,"INCLINATION":99.0309,"RA_OF_ASC_NODE":156.5887,"ARG_OF_PERICENTER":277.0558,"MEAN_ANOMALY":81.5646,"EPHEMERIS_TYPE":0,"CLASSIFICATION_TYPE":"U","NORAD_CAT_ID":31416,"ELEMENT_SET_NO":999,"REV_AT_EPOCH":67149,"BSTAR":0.00030370456,"MEAN_MOTION_DOT":1.025e-5,"MEAN_MOTION_DDOT":0},{"OBJECT_NAME":"FENGYUN 1C DEB","OBJECT_ID":"1999-025BTG","EPOCH":"2026-04-04T15:25:19.034688","MEAN_MOTION":14.41266546,"ECCENTRICITY":0.0134984,"INCLINATION":97.5489,"RA_OF_ASC_NODE":344.5753,"ARG_OF_PERICENTER":340.8663,"MEAN_ANOMALY":48.2007,"EPHEMERIS_TYPE":0,"CLASSIFICATION_TYPE":"U","NORAD_CAT_ID":31420,"ELEMENT_SET_NO":999,"REV_AT_EPOCH":66620,"BSTAR":0.00078573,"MEAN_MOTION_DOT":2.79e-5,"MEAN_MOTION_DDOT":0},{"OBJECT_NAME":"FENGYUN 1C DEB","OBJECT_ID":"1999-025BTJ","EPOCH":"2026-03-31T06:42:23.648832","MEAN_MOTION":14.09775819,"ECCENTRICITY":0.003385,"INCLINATION":98.7674,"RA_OF_ASC_NODE":89.3659,"ARG_OF_PERICENTER":356.5668,"MEAN_ANOMALY":16.89,"EPHEMERIS_TYPE":0,"CLASSIFICATION_TYPE":"U","NORAD_CAT_ID":31422,"ELEMENT_SET_NO":999,"REV_AT_EPOCH":97191,"BSTAR":0.00045546,"MEAN_MOTION_DOT":7.61e-6,"MEAN_MOTION_DDOT":0},{"OBJECT_NAME":"FENGYUN 1C DEB","OBJECT_ID":"1999-025BTK","EPOCH":"2026-04-05T05:11:12.575328","MEAN_MOTION":14.23063452,"ECCENTRICITY":0.00355334,"INCLINATION":98.5988,"RA_OF_ASC_NODE":78.273,"ARG_OF_PERICENTER":224.773,"MEAN_ANOMALY":135.058,"EPHEMERIS_TYPE":0,"CLASSIFICATION_TYPE":"U","NORAD_CAT_ID":31423,"ELEMENT_SET_NO":999,"REV_AT_EPOCH":98582,"BSTAR":0.00016802559,"MEAN_MOTION_DOT":3.38e-6,"MEAN_MOTION_DDOT":0},{"OBJECT_NAME":"FENGYUN 1C DEB","OBJECT_ID":"1999-025BTL","EPOCH":"2026-04-02T09:23:01.063392","MEAN_MOTION":14.08456575,"ECCENTRICITY":0.00943011,"INCLINATION":98.4634,"RA_OF_ASC_NODE":134.7196,"ARG_OF_PERICENTER":149.9617,"MEAN_ANOMALY":210.7011,"EPHEMERIS_TYPE":0,"CLASSIFICATION_TYPE":"U","NORAD_CAT_ID":31424,"ELEMENT_SET_NO":999,"REV_AT_EPOCH":64728,"BSTAR":0.00034585933,"MEAN_MOTION_DOT":5.78e-6,"MEAN_MOTION_DDOT":0},{"OBJECT_NAME":"FENGYUN 1C DEB","OBJECT_ID":"1999-025BTN","EPOCH":"2026-04-04T21:22:49.045152","MEAN_MOTION":13.9082068,"ECCENTRICITY":0.03222511,"INCLINATION":98.5901,"RA_OF_ASC_NODE":249.1079,"ARG_OF_PERICENTER":233.5467,"MEAN_ANOMALY":284.3265,"EPHEMERIS_TYPE":0,"CLASSIFICATION_TYPE":"U","NORAD_CAT_ID":31426,"ELEMENT_SET_NO":999,"REV_AT_EPOCH":95145,"BSTAR":0.0028260477,"MEAN_MOTION_DOT":5.348e-5,"MEAN_MOTION_DDOT":0},{"OBJECT_NAME":"FENGYUN 1C DEB","OBJECT_ID":"1999-025BTP","EPOCH":"2026-04-05T07:01:04.986048","MEAN_MOTION":14.61967156,"ECCENTRICITY":0.00289086,"INCLINATION":98.6716,"RA_OF_ASC_NODE":214.5508,"ARG_OF_PERICENTER":32.0714,"MEAN_ANOMALY":328.2237,"EPHEMERIS_TYPE":0,"CLASSIFICATION_TYPE":"U","NORAD_CAT_ID":31427,"ELEMENT_SET_NO":999,"REV_AT_EPOCH":98538,"BSTAR":0.0030245667,"MEAN_MOTION_DOT":0.00015222,"MEAN_MOTION_DDOT":0},{"OBJECT_NAME":"FENGYUN 1C DEB","OBJECT_ID":"1999-025BTQ","EPOCH":"2026-04-05T05:23:02.541408","MEAN_MOTION":14.42783684,"ECCENTRICITY":0.00627481,"INCLINATION":99.0519,"RA_OF_ASC_NODE":78.4649,"ARG_OF_PERICENTER":177.727,"MEAN_ANOMALY":197.8992,"EPHEMERIS_TYPE":0,"CLASSIFICATION_TYPE":"U","NORAD_CAT_ID":31428,"ELEMENT_SET_NO":999,"REV_AT_EPOCH":99146,"BSTAR":0.00091319802,"MEAN_MOTION_DOT":3.068e-5,"MEAN_MOTION_DDOT":0},{"OBJECT_NAME":"FENGYUN 1C DEB","OBJECT_ID":"1999-025BTR","EPOCH":"2026-04-05T02:09:51.753312","MEAN_MOTION":14.23100682,"ECCENTRICITY":0.00157923,"INCLINATION":98.6719,"RA_OF_ASC_NODE":147.4169,"ARG_OF_PERICENTER":94.7518,"MEAN_ANOMALY":296.9907,"EPHEMERIS_TYPE":0,"CLASSIFICATION_TYPE":"U","NORAD_CAT_ID":31429,"ELEMENT_SET_NO":999,"REV_AT_EPOCH":97565,"BSTAR":0.0011396306,"MEAN_MOTION_DOT":2.532e-5,"MEAN_MOTION_DDOT":0},{"OBJECT_NAME":"FENGYUN 1C DEB","OBJECT_ID":"1999-025BTS","EPOCH":"2026-04-04T16:18:18.576288","MEAN_MOTION":14.26179785,"ECCENTRICITY":0.00278626,"INCLINATION":98.7282,"RA_OF_ASC_NODE":162.3561,"ARG_OF_PERICENTER":75.4266,"MEAN_ANOMALY":75.739,"EPHEMERIS_TYPE":0,"CLASSIFICATION_TYPE":"U","NORAD_CAT_ID":31430,"ELEMENT_SET_NO":999,"REV_AT_EPOCH":97727,"BSTAR":0.0013302368,"MEAN_MOTION_DOT":3.155e-5,"MEAN_MOTION_DDOT":0}]
