FENGYUN 1C DEB          
1 31388U 99025BSU 26092.25471131  .00000409  00000+0  26595-3 0  9993
2 31388  98.8170  82.4734 0045856 250.7297 125.1437 14.07493929979967
FENGYUN 1C DEB          
1 31389U 99025BSV 26092.44658858  .00039781  00000+0  70332-2 0  9990
2 31389  99.0442 273.5783 0028121 205.0339 183.9486 14.66965896981170
FENGYUN 1C DEB          
1 31410U 99025BSW 26091.72085876  .00002095  00000+0  56629-3 0  9991
2 31410  98.8477 262.8090 0108727 317.9010  57.6753 14.45516534993403
FENGYUN 1C DEB          
1 31411U 99025BSX 26091.12300775  .00000963  00000+0  38364-3 0  9992
2 31411  98.6504 156.5302 0099877 295.1092  94.3938 14.28234274960417
FENGYUN 1C DEB          
1 31412U 99025BSY 26094.78010173  .00004345  00000+0  23806-2 0  9990
2 31412  98.5567  38.1709 0083718  12.9366 347.3927 14.10565607625851
FENGYUN 1C DEB          
1 31415U 99025BTB 26090.64210874  .00003988  00000+0  14876-2 0  9993
2 31415  99.6526  59.5684 0063034 124.0937 236.6246 14.31481329643886
FENGYUN 1C DEB          
1 31416U 99025BTC 26094.90098920  .00001025  00000+0  30370-3 0  9991
2 31416  99.0309 156.5887 0131894 277.0558  81.5646 14.40917898671495
FENGYUN 1C DEB          
1 31420U 99025BTG 26094.64258142  .00002790  00000+0  78573-3 0  9998
2 31420  97.5489 344.5753 0134984 340.8663  48.2007 14.41266546666204
FENGYUN 1C DEB          
1 31422U 99025BTJ 26090.27944038  .00000761  00000+0  45546-3 0  9991
2 31422  98.7674  89.3659 0033850 356.5668  16.8900 14.09775819971915
FENGYUN 1C DEB          
1 31423U 99025BTK 26095.21611777  .00000338  00000+0  16803-3 0  9996
2 31423  98.5988  78.2730 0035533 224.7730 135.0580 14.23063452985827
FENGYUN 1C DEB          
1 31424U 99025BTL 26092.39098453  .00000578  00000+0  34586-3 0  9997
2 31424  98.4634 134.7196 0094301 149.9617 210.7011 14.08456575647289
FENGYUN 1C DEB          
1 31426U 99025BTN 26094.89084543  .00005348  00000+0  28260-2 0  9992
2 31426  98.5901 249.1079 0322251 233.5467 284.3265 13.90820680951458
FENGYUN 1C DEB          
1 31427U 99025BTP 26095.29241882  .00015222  00000+0  30246-2 0  9998
2 31427  98.6716 214.5508 0028908  32.0714 328.2237 14.61967156985381
FENGYUN 1C DEB          
1 31428U 99025BTQ 26095.22433497  .00003068  00000+0  91320-3 0  9993
2 31428  99.0519  78.4649 0062748 177.7270 197.8992 14.42783684991460
FENGYUN 1C DEB          
1 31429U 99025BTR 26095.09018233  .00002532  00000+0  11396-2 0  9995
2 31429  98.6719 147.4169 0015792  94.7518 296.9907 14.23100682975652
FENGYUN 1C DEB          
1 31430U 99025BTS 26094.67938167  .00003155  00000+0  13302-2 0  9998
2 31430  98.7282 162.3561 0027862  75.4266  75.7390 14.26179785977271
